{"type":"FeatureCollection","properties":{"source":"Natural Earth 10 m physical land (public domain)","clip":{"lat":[8.4,10.8],"lon":[74.7,77]},"note":"Built once by scripts/make-coastline.ts. Committed so the app runs offline."},"features":[{"type":"Feature","properties":{},"geometry":{"type":"Polygon","coordinates":[[[77,10.8],[77,8.4],[76.96684,8.4],[76.96258,8.40469],[76.88014,8.5207],[76.82651,8.56981],[76.81373,8.60126],[76.74171,8.68452],[76.73129,8.70795],[76.69565,8.73981],[76.66033,8.79975],[76.64454,8.819],[76.5586,8.89069],[76.54396,8.9125],[76.54811,8.92422],[76.55909,8.92524],[76.57325,8.90445],[76.59116,8.90815],[76.60987,8.91795],[76.62062,8.92544],[76.60727,8.92577],[76.59376,8.92105],[76.58155,8.91991],[76.57228,8.93163],[76.57399,8.94257],[76.58229,8.95637],[76.59327,8.96821],[76.60328,8.97321],[76.65756,8.96638],[76.66082,8.96988],[76.65211,8.97728],[76.64039,8.98444],[76.63429,8.98688],[76.64194,8.99136],[76.6565,8.99506],[76.66847,8.99982],[76.66847,9.00739],[76.65789,9.01069],[76.64405,9.00788],[76.63209,9.00235],[76.62672,8.99746],[76.62062,8.98713],[76.60646,8.98941],[76.58277,9.00056],[76.57683,8.99413],[76.56593,8.96328],[76.5586,8.95209],[76.55112,8.96638],[76.55812,8.97305],[76.56153,8.97899],[76.56544,8.99433],[76.54965,8.98444],[76.53883,8.9726],[76.53443,8.95783],[76.5381,8.93911],[76.52809,8.94697],[76.52149,8.96133],[76.51791,8.97744],[76.51686,8.99063],[76.51385,9.00214],[76.50017,9.02228],[76.48927,9.05557],[76.46046,9.11494],[76.46241,9.13833],[76.46453,9.13251],[76.46664,9.12897],[76.46827,9.12458],[76.46909,9.1166],[76.47657,9.1166],[76.47625,9.13125],[76.48276,9.17182],[76.47332,9.16425],[76.47096,9.16014],[76.46909,9.15135],[76.46241,9.15135],[76.44337,9.21214],[76.42823,9.24535],[76.41456,9.24698],[76.41603,9.23631],[76.44679,9.15961],[76.44874,9.14517],[76.44256,9.14517],[76.36297,9.32518],[76.31178,9.49299],[76.29103,9.63321],[76.29713,9.65843],[76.27735,9.80927],[76.25318,9.88373],[76.24676,9.89374],[76.24024,9.9394],[76.23634,9.9527],[76.25148,9.96312],[76.26954,9.951],[76.28468,9.92853],[76.29103,9.9086],[76.28566,9.90436],[76.26222,9.91157],[76.25685,9.9086],[76.25766,9.89582],[76.26059,9.88471],[76.26686,9.87604],[76.27735,9.87075],[76.27858,9.8769],[76.28419,9.89118],[76.28907,9.87714],[76.28826,9.86123],[76.28443,9.84821],[76.28077,9.84284],[76.28981,9.84382],[76.29998,9.84781],[76.3047,9.85627],[76.29713,9.87075],[76.3086,9.87962],[76.31381,9.86131],[76.33888,9.69941],[76.3462,9.69941],[76.34734,9.72687],[76.33758,9.78925],[76.3462,9.81611],[76.32399,9.84618],[76.32008,9.86164],[76.33269,9.87075],[76.33741,9.85619],[76.35304,9.82982],[76.35922,9.81611],[76.36109,9.80386],[76.35865,9.78181],[76.35922,9.7683],[76.36801,9.71556],[76.37713,9.6955],[76.39405,9.67894],[76.39243,9.66283],[76.38657,9.64985],[76.37916,9.63776],[76.37289,9.62434],[76.35328,9.53535],[76.35743,9.5207],[76.37672,9.51447],[76.42579,9.50528],[76.43507,9.50764],[76.45899,9.4973],[76.47706,9.50373],[76.50327,9.53498],[76.48439,9.54377],[76.46656,9.55638],[76.4485,9.56342],[76.42823,9.55541],[76.41725,9.56143],[76.40699,9.56908],[76.41969,9.59418],[76.41961,9.61449],[76.41505,9.63618],[76.41456,9.68268],[76.41,9.70026],[76.4026,9.7106],[76.39405,9.70624],[76.3921,9.71695],[76.39479,9.73517],[76.39405,9.74722],[76.3908,9.75698],[76.38209,9.77473],[76.38038,9.7851],[76.38404,9.80264],[76.39129,9.8122],[76.39649,9.82266],[76.39405,9.84284],[76.38559,9.86152],[76.36378,9.89924],[76.35922,9.91543],[76.32081,9.95331],[76.31153,9.96695],[76.29428,9.95132],[76.27817,9.97793],[76.2693,10.01626],[76.27394,10.03583],[76.25506,10.04767],[76.24513,10.1022],[76.23634,10.10346],[76.22771,10.10956],[76.22291,10.11762],[76.21534,10.13825],[76.20753,10.11713],[76.21355,10.09882],[76.22348,10.0821],[76.22901,10.0659],[76.23097,10.02582],[76.23504,10.00507],[76.24269,9.98745],[76.2282,9.99995],[76.21461,10.02448],[76.18238,10.10566],[76.18116,10.12116],[76.18491,10.13581],[76.18458,10.14492],[76.17774,10.15534],[76.1775,10.17064],[76.22413,10.19693],[76.23634,10.21027],[76.23732,10.21699],[76.24171,10.22394],[76.24269,10.23102],[76.24024,10.23896],[76.23439,10.23794],[76.22779,10.23428],[76.22283,10.23444],[76.21339,10.25324],[76.20631,10.26288],[76.19483,10.26862],[76.20786,10.23456],[76.20948,10.21601],[76.20167,10.19969],[76.18409,10.18936],[76.17058,10.19375],[76.16049,10.20624],[76.15317,10.22016],[76.13819,10.26105],[76.12062,10.34357],[76.10613,10.38467],[76.07008,10.43281],[76.06511,10.44986],[76.06332,10.47016],[76.05242,10.51398],[76.04461,10.52928],[76.01873,10.55341],[76.00807,10.56708],[75.99969,10.60554],[75.93914,10.72606],[75.93474,10.74433],[75.93214,10.75096],[75.92693,10.75772],[75.92205,10.76557],[75.92107,10.7757],[75.92408,10.78071],[75.93653,10.79072],[75.94158,10.79621],[75.93272,10.8]]]}}]}